INTELSAT 23 (IS-23)     
1 38867U 12057A   26196.76042102 -.00000295  00000+0  00000+0 0  9998
2 38867   0.0181  24.4123 0000465 210.6040 279.3481  1.00268418 50243
FM-6                    
1 39360U 13058A   26194.96565503 -.00000021  00000+0  00000+0 0  9991
2 39360   0.0142  33.4803 0001390 144.8411 344.7900  1.00270909 46349
INTELSAT 30 (IS-30)     
1 40271U 14062A   26196.60909404 -.00000161  00000+0  00000+0 0  9990
2 40271   0.0191  53.0115 0001350 333.2554  31.4017  1.00269383  7078
DIRECTV 14              
1 40333U 14078B   26196.51016898 -.00000135  00000+0  00000+0 0  9993
2 40333   0.0110  40.7880 0000690 304.5925  32.3918  1.00267237 42322
DIRECTV 15              
1 40663U 15026A   26195.68123920 -.00000111  00000+0  00000+0 0  9999
2 40663   0.0176  71.4979 0000099 242.5429 120.8693  1.00271323 40730
SKY MEXICO-1            
1 40664U 15026B   26196.54145125 -.00000244  00000+0  00000+0 0  9994
2 40664   0.0161  41.0040 0002388  95.2803 273.2137  1.00269990 40732
INTELSAT 34 (IS-34)     
1 40874U 15039A   26196.75990101 -.00000296  00000+0  00000+0 0  9993
2 40874   0.0103   8.8814 0000411 353.7366 149.0502  1.00269397 39928
INTELSAT 31 (IS-31)     
1 41581U 16035A   26196.60952736 -.00000160  00000+0  00000+0 0  9992
2 41581   0.0128 297.4964 0001237   0.9284 119.4048  1.00268690 36962
INTELSAT 36 (IS-36)     
1 41747U 16053A   26196.78450097 -.00000034  00000+0  00000+0 0  9998
2 41747   0.0118  35.0774 0002366 304.5347 304.9064  1.00270501 36241
INTELSAT 32E (IS-32E)   
1 41945U 17007B   26196.69096175  .00000000  00000+0  00000+0 0  9993
2 41945   0.0237  56.8760 0000271 287.4334 154.7924  1.00266215 34518
INTELSAT 35E (IS-35E)   
1 42818U 17041A   26196.55183711  .00000000  00000+0  00000+0 0  9999
2 42818   0.0261  63.1048 0001683  46.6502 347.7991  1.00266637 33105
INTELSAT 37E (IS-37E)   
1 42950U 17059A   26196.76735436 -.00000152  00000+0  00000+0 0  9994
2 42950   0.0169  49.6350 0002607  74.0431  68.1552  1.00269761 32351
AZERSPACE 2 (IS-38)     
1 43632U 18074A   26196.85118248  .00000000  00000+0  00000+0 0  9997
2 43632   0.0246  58.5053 0001618  67.4827 159.2538  1.00273206 28732
HORIZONS-3E             
1 43633U 18074B   26194.64002854 -.00000035  00000+0  00000+0 0  9997
2 43633   0.0498 224.9289 0000940  53.6947  52.2963  1.00270118 28608
AT&T T-16               
1 44333U 19034A   26195.82414432 -.00000123  00000+0  00000+0 0  9990
2 44333   0.0157  70.7114 0000616 248.2150 169.5701  1.00268430 25917
INTELSAT 39 (IS-39)     
1 44476U 19049B   26196.78320096  .00000000  00000+0  00000+0 0  9995
2 44476   0.0241  57.5827 0000936 279.7191 300.2303  1.00269352 25413
GALAXY 30 (G-30)        
1 46114U 20056C   26196.67484167  .00000027  00000+0  00000+0 0  9993
2 46114   0.0143  60.1021 0001999  55.6729 295.6777  1.00271950 21571
GALAXY 33 (G-33)        
1 54026U 22128A   26196.74456094  .00000069  00000+0  00000+0 0  9998
2 54026   0.0109  51.6708 0001805  68.9157 308.0435  1.00272482 14022
GALAXY 34 (G-34)        
1 54027U 22128B   26196.67406167  .00000048  00000+0  00000+0 0  9994
2 54027   0.0124  38.4274 0001513  92.6811 276.0718  1.00276610 14191
GALAXY 31 (G-31)        
1 54243U 22153A   26196.67570833  .00000003  00000+0  00000+0 0  9995
2 54243   0.0140  81.9440 0000994  37.7464 296.0624  1.00271295  7412
GALAXY 32 (G-32)        
1 54244U 22153B   26196.46775839 -.00000184  00000+0  00000+0 0  9997
2 54244   0.0084  45.5334 0001319 354.6231 330.5392  1.00271540 13420
GALAXY 35 (G-35)        
1 54741U 22170A   26196.60987404 -.00000172  00000+0  00000+0 0  9994
2 54741   0.0172  72.5640 0001763  44.1053 303.2186  1.00272224 13176
GALAXY 36 (G-36)        
1 54742U 22170B   26196.61074071 -.00000195  00000+0  00000+0 0  9998
2 54742   0.0054 142.8857 0002397 316.1422 325.2844  1.00270281 13056
GALAXY 37 (G-37)        
1 57493U 23112A   26194.96357502  .00000042  00000+0  00000+0 0  9990
2 57493   0.0218  73.5270 0001739  44.1230  34.0616  1.00271325 10810
