OBJECT_NAME,OBJECT_ID,EPOCH,MEAN_MOTION,ECCENTRICITY,INCLINATION,RA_OF_ASC_NODE,ARG_OF_PERICENTER,MEAN_ANOMALY,EPHEMERIS_TYPE,CLASSIFICATION_TYPE,NORAD_CAT_ID,ELEMENT_SET_NO,REV_AT_EPOCH,BSTAR,MEAN_MOTION_DOT,MEAN_MOTION_DDOT
INTELSAT 23 (IS-23),2012-057A,2026-07-15T18:15:00.376128,1.00268418,.0000465,0.0181,24.4123,210.6040,279.3481,0,U,38867,999,5024,0,-.295E-5,0
FM-6,2013-058A,2026-07-13T23:10:32.594592,1.00270909,.00013903,0.0142,33.4803,144.8411,344.7900,0,U,39360,999,4634,0,-.21E-6,0
INTELSAT 30 (IS-30),2014-062A,2026-07-15T14:37:05.725056,1.00269383,.000135,0.0191,53.0115,333.2554,31.4017,0,U,40271,999,707,0,-.161E-5,0
DIRECTV 14,2014-078B,2026-07-15T12:14:38.599872,1.00267237,.000069,0.0110,40.7880,304.5925,32.3918,0,U,40333,999,4232,0,-.135E-5,0
DIRECTV 15,2015-026A,2026-07-14T16:20:59.066880,1.00271323,.00000994,0.0176,71.4979,242.5429,120.8693,0,U,40663,999,4073,0,-.111E-5,0
SKY MEXICO-1,2015-026B,2026-07-15T12:59:41.388000,1.00269990,.0002388,0.0161,41.0040,95.2803,273.2137,0,U,40664,999,4073,0,-.244E-5,0
INTELSAT 34 (IS-34),2015-039A,2026-07-15T18:14:15.447264,1.00269397,.0000411,0.0103,8.8814,353.7366,149.0502,0,U,40874,999,3992,0,-.296E-5,0
INTELSAT 31 (IS-31),2016-035A,2026-07-15T14:37:43.163904,1.00268690,.0001237,0.0128,297.4964,0.9284,119.4048,0,U,41581,999,3696,0,-.16E-5,0
INTELSAT 36 (IS-36),2016-053A,2026-07-15T18:49:40.883808,1.00270501,.0002366,0.0118,35.0774,304.5347,304.9064,0,U,41747,999,3624,0,-.34E-6,0
INTELSAT 32E (IS-32E),2017-007B,2026-07-15T16:34:59.095200,1.00266215,.0000271,0.0237,56.8760,287.4334,154.7924,0,U,41945,999,3451,0,0,0
INTELSAT 35E (IS-35E),2017-041A,2026-07-15T13:14:38.726304,1.00266637,.0001683,0.0261,63.1048,46.6502,347.7991,0,U,42818,999,3310,0,0,0
INTELSAT 37E (IS-37E),2017-059A,2026-07-15T18:24:59.416704,1.00269761,.0002607,0.0169,49.6350,74.0431,68.1552,0,U,42950,999,3235,0,-.152E-5,0
AZERSPACE 2 (IS-38),2018-074A,2026-07-15T20:25:42.166272,1.00273206,.0001618,0.0246,58.5053,67.4827,159.2538,0,U,43632,999,2873,0,0,0
HORIZONS-3E,2018-074B,2026-07-13T15:21:38.465856,1.00270118,.00009408,0.0498,224.9289,53.6947,52.2963,0,U,43633,999,2860,0,-.35E-6,0
AT&T T-16,2019-034A,2026-07-14T19:46:46.069248,1.00268430,.00006162,0.0157,70.7114,248.2150,169.5701,0,U,44333,999,2591,0,-.123E-5,0
INTELSAT 39 (IS-39),2019-049B,2026-07-15T18:47:48.562944,1.00269352,.0000936,0.0241,57.5827,279.7191,300.2303,0,U,44476,999,2541,0,0,0
GALAXY 30 (G-30),2020-056C,2026-07-15T16:11:46.320288,1.00271950,.0001999,0.0143,60.1021,55.6729,295.6777,0,U,46114,999,2157,0,.27E-6,0
GALAXY 33 (G-33),2022-128A,2026-07-15T17:52:10.065216,1.00272482,.0001805,0.0109,51.6708,68.9157,308.0435,0,U,54026,999,1402,0,.69E-6,0
GALAXY 34 (G-34),2022-128B,2026-07-15T16:10:38.928288,1.00276610,.0001513,0.0124,38.4274,92.6811,276.0718,0,U,54027,999,1419,0,.48E-6,0
GALAXY 31 (G-31),2022-153A,2026-07-15T16:13:01.199712,1.00271295,.0000994,0.0140,81.9440,37.7464,296.0624,0,U,54243,999,741,0,.3E-7,0
GALAXY 32 (G-32),2022-153B,2026-07-15T11:13:34.324896,1.00271540,.0001319,0.0084,45.5334,354.6231,330.5392,0,U,54244,999,1342,0,-.184E-5,0
GALAXY 35 (G-35),2022-170A,2026-07-15T14:38:13.117056,1.00272224,.0001763,0.0172,72.5640,44.1053,303.2186,0,U,54741,999,1317,0,-.172E-5,0
GALAXY 36 (G-36),2022-170B,2026-07-15T14:39:27.997344,1.00270281,.0002397,0.0054,142.8857,316.1422,325.2844,0,U,54742,999,1305,0,-.195E-5,0
GALAXY 37 (G-37),2023-112A,2026-07-13T23:07:32.881728,1.00271325,.00017395,0.0218,73.5270,44.1230,34.0616,0,U,57493,999,1081,0,.42E-6,0
